{"type": "FeatureCollection", "features": [ {"type": "Feature", "properties": {"norad_id": 66420, "name": "HULIANWANG DIGUI 13J", "group": "last-30-days", "lat": 3.2880534453018964, "lon": -82.13485448106218, "alt_km": 820.0681534214618, "timestamp": "2025-12-09T14:52:24.940466+00:00", "meta": {"OBJECT_NAME": "HULIANWANG DIGUI 13J", "OBJECT_ID": "2025-258J", "EPOCH": "2025-12-08T20:17:06.442944", "MEAN_MOTION": 14.20810839, "ECCENTRICITY": 0.00037732, "INCLINATION": 50.0024, "RA_OF_ASC_NODE": 278.346, "ARG_OF_PERICENTER": 347.1433, "MEAN_ANOMALY": 12.9382, "EPHEMERIS_TYPE": 0, "CLASSIFICATION_TYPE": "U", "NORAD_CAT_ID": 66420, "ELEMENT_SET_NO": 999, "REV_AT_EPOCH": 409, "BSTAR": 0.00037258505, "MEAN_MOTION_DOT": 6.52e-06, "MEAN_MOTION_DDOT": 0}, "tle": {"line1": "1 66420U 25258J   25342.84521346  .00000652  00000+0  37259-3 0  9990", "line2": "2 66420  50.0024 278.3460 0003773 347.1433  12.9382 14.20810839  4090"}}, "geometry": {"type": "Point", "coordinates": [-82.13485448106218, 3.2880534453018964]}}, {"type": "Feature", "properties": {"norad_id": 66421, "name": "CZ-12 R/B", "group": "last-30-days", "lat": 49.97641819069377, "lon": 1.955317773814834, "alt_km": 782.7139575132924, "timestamp": "2025-12-09T14:52:24.940477+00:00", "meta": {"OBJECT_NAME": "CZ-12 R/B", "OBJECT_ID": "2025-258K", "EPOCH": "2025-12-09T07:48:03.220992", "MEAN_MOTION": 14.42322551, "ECCENTRICITY": 0.00645343, "INCLINATION": 49.9957, "RA_OF_ASC_NODE": 272.765, "ARG_OF_PERICENTER": 237.1319, "MEAN_ANOMALY": 122.338, "EPHEMERIS_TYPE": 0, "CLASSIFICATION_TYPE": "U", "NORAD_CAT_ID": 66421, "ELEMENT_SET_NO": 999, "REV_AT_EPOCH": 423, "BSTAR": 0.00015260249, "MEAN_MOTION_DOT": 3.5e-06, "MEAN_MOTION_DDOT": 0}, "tle": {"line1": "1 66421U 25258K   25343.32503728  .00000350  00000+0  15260-3 0  9992", "line2": "2 66421  49.9957 272.7650 0064534 237.1319 122.3380 14.42322551  4238"}}, "geometry": {"type": "Point", "coordinates": [1.955317773814834, 49.97641819069377]}}, {"type": "Feature", "properties": {"norad_id": 66422, "name": "STARLINK-35617", "group": "last-30-days", "lat": -41.896783736742684, "lon": -39.62203729878563, "alt_km": 446.03934654240766, "timestamp": "2025-12-09T14:52:24.940488+00:00", "meta": {"OBJECT_NAME": "STARLINK-35617", "OBJECT_ID": "2025-259A", "EPOCH": "2025-12-08T12:51:52.412256", "MEAN_MOTION": 15.40691452, "ECCENTRICITY": 0.00012248, "INCLINATION": 43.0031, "RA_OF_ASC_NODE": 72.3335, "ARG_OF_PERICENTER": 249.5748, "MEAN_ANOMALY": 110.4978, "EPHEMERIS_TYPE": 0, "CLASSIFICATION_TYPE": "U", "NORAD_CAT_ID": 66422, "ELEMENT_SET_NO": 999, "REV_AT_EPOCH": 551, "BSTAR": 0.0020061466, "MEAN_MOTION_DOT": 0.00084406, "MEAN_MOTION_DDOT": 0}, "tle": {"line1": "1 66422U 25259A   25342.53602329  .00084406  00000+0  20061-2 0  9991", "line2": "2 66422  43.0031  72.3335 0001224 249.5748 110.4978 15.40691452  5512"}}, "geometry": {"type": "Point", "coordinates": [-39.62203729878563, -41.896783736742684]}}, {"type": "Feature", "properties": {"norad_id": 66423, "name": "STARLINK-35618", "group": "last-30-days", "lat": -42.97877253739932, "lon": -23.325217883896574, "alt_km": 446.3381220272868, "timestamp": "2025-12-09T14:52:24.940498+00:00", "meta": {"OBJECT_NAME": "STARLINK-35618", "OBJECT_ID": "2025-259B", "EPOCH": "2025-12-09T00:00:02.000160", "MEAN_MOTION": 15.4067628, "ECCENTRICITY": 0.0001559, "INCLINATION": 43.0007, "RA_OF_ASC_NODE": 69.6297, "ARG_OF_PERICENTER": 260.4862, "MEAN_ANOMALY": 168.6634, "EPHEMERIS_TYPE": 0, "CLASSIFICATION_TYPE": "U", "NORAD_CAT_ID": 66423, "ELEMENT_SET_NO": 999, "REV_AT_EPOCH": 567, "BSTAR": 0.00061594, "MEAN_MOTION_DOT": 0.00025491, "MEAN_MOTION_DDOT": 0}, "tle": {"line1": "1 66423U 25259B   25343.00002315  .00025491  00000+0  61594-3 0  9990", "line2": "2 66423  43.0007  69.6297 0001559 260.4862 168.6634 15.40676280  5675"}}, "geometry": {"type": "Point", "coordinates": [-23.325217883896574, -42.97877253739932]}}, {"type": "Feature", "properties": {"norad_id": 66424, "name": "STARLINK-35588", "group": "last-30-days", "lat": -41.65384305258571, "lon": -6.630175458782305, "alt_km": 446.2484206234021, "timestamp": "2025-12-09T14:52:24.940509+00:00", "meta": {"OBJECT_NAME": "STARLINK-35588", "OBJECT_ID": "2025-259C", "EPOCH": "2025-12-09T00:00:02.000160", "MEAN_MOTION": 15.40656922, "ECCENTRICITY": 0.0001644, "INCLINATION": 43.0009, "RA_OF_ASC_NODE": 69.5999, "ARG_OF_PERICENTER": 277.1195, "MEAN_ANOMALY": 164.4996, "EPHEMERIS_TYPE": 0, "CLASSIFICATION_TYPE": "U", "NORAD_CAT_ID": 66424, "ELEMENT_SET_NO": 999, "REV_AT_EPOCH": 567, "BSTAR": 0.00081937, "MEAN_MOTION_DOT": 0.00034027, "MEAN_MOTION_DDOT": 0}, "tle": {"line1": "1 66424U 25259C   25343.00002315  .00034027  00000+0  81937-3 0  9999", "line2": "2 66424  43.0009  69.5999 0001644 277.1195 164.4996 15.40656922  5671"}}, "geometry": {"type": "Point", "coordinates": [-6.630175458782305, -41.65384305258571]}}, {"type": "Feature", "properties": {"norad_id": 66425, "name": "STARLINK-35555", "group": "last-30-days", "lat": -38.03856261201591, "lon": 8.902522207586848, "alt_km": 446.32435928404175, "timestamp": "2025-12-09T14:52:24.940520+00:00", "meta": {"OBJECT_NAME": "STARLINK-35555", "OBJECT_ID": "2025-259D", "EPOCH": "2025-12-09T00:00:02.000160", "MEAN_MOTION": 15.40762168, "ECCENTRICITY": 0.0001334, "INCLINATION": 43.0009, "RA_OF_ASC_NODE": 69.5681, "ARG_OF_PERICENTER": 276.2527, "MEAN_ANOMALY": 177.7303, "EPHEMERIS_TYPE": 0, "CLASSIFICATION_TYPE": "U", "NORAD_CAT_ID": 66425, "ELEMENT_SET_NO": 999, "REV_AT_EPOCH": 567, "BSTAR": -0.0012463, "MEAN_MOTION_DOT": -0.00052117, "MEAN_MOTION_DDOT": 0}, "tle": {"line1": "1 66425U 25259D   25343.00002315 -.00052117  00000+0 -12463-2 0  9999", "line2": "2 66425  43.0009  69.5681 0001334 276.2527 177.7303 15.40762168  5674"}}, "geometry": {"type": "Point", "coordinates": [8.902522207586848, -38.03856261201591]}}, {"type": "Feature", "properties": {"norad_id": 66426, "name": "STARLINK-35589", "group": "last-30-days", "lat": -32.62540003881342, "lon": 22.580186098633213, "alt_km": 446.2194832183359, "timestamp": "2025-12-09T14:52:24.940532+00:00", "meta": {"OBJECT_NAME": "STARLINK-35589", "OBJECT_ID": "2025-259E", "EPOCH": "2025-12-09T08:00:01.999872", "MEAN_MOTION": 15.40652176, "ECCENTRICITY": 0.00014354, "INCLINATION": 43.0008, "RA_OF_ASC_NODE": 67.6196, "ARG_OF_PERICENTER": 268.5875, "MEAN_ANOMALY": 248.9537, "EPHEMERIS_TYPE": 0, "CLASSIFICATION_TYPE": "U", "NORAD_CAT_ID": 66426, "ELEMENT_SET_NO": 999, "REV_AT_EPOCH": 573, "BSTAR": 0.0008161776, "MEAN_MOTION_DOT": 0.00033887, "MEAN_MOTION_DDOT": 0}, "tle": {"line1": "1 66426U 25259E   25343.33335648  .00033887  00000+0  81618-3 0  9994", "line2": "2 66426  43.0008  67.6196 0001435 268.5875 248.9537 15.40652176  5730"}}, "geometry": {"type": "Point", "coordinates": [22.580186098633213, -32.62540003881342]}}, {"type": "Feature", "properties": {"norad_id": 66427, "name": "STARLINK-35611", "group": "last-30-days", "lat": -25.895859420449625, "lon": 34.54030556381644, "alt_km": 445.8231492370305, "timestamp": "2025-12-09T14:52:24.940544+00:00", "meta": {"OBJECT_NAME": "STARLINK-35611", "OBJECT_ID": "2025-259F", "EPOCH": "2025-12-09T08:00:01.999872", "MEAN_MOTION": 15.4065324, "ECCENTRICITY": 0.00014824, "INCLINATION": 43.0009, "RA_OF_ASC_NODE": 67.5883, "ARG_OF_PERICENTER": 274.0377, "MEAN_ANOMALY": 255.9384, "EPHEMERIS_TYPE": 0, "CLASSIFICATION_TYPE": "U", "NORAD_CAT_ID": 66427, "ELEMENT_SET_NO": 999, "REV_AT_EPOCH": 573, "BSTAR": 0.00087833043, "MEAN_MOTION_DOT": 0.00036505, "MEAN_MOTION_DDOT": 0}, "tle": {"line1": "1 66427U 25259F   25343.33335648  .00036505  00000+0  87833-3 0  9990", "line2": "2 66427  43.0009  67.5883 0001482 274.0377 255.9384 15.40653240  5736"}}, "geometry": {"type": "Point", "coordinates": [34.54030556381644, -25.895859420449625]}}, {"type": "Feature", "properties": {"norad_id": 66428, "name": "STARLINK-35610", "group": "last-30-days", "lat": -18.291324486640153, "lon": 45.131683405531014, "alt_km": 445.3473449483172, "timestamp": "2025-12-09T14:52:24.940555+00:00", "meta": {"OBJECT_NAME": "STARLINK-35610", "OBJECT_ID": "2025-259G", "EPOCH": "2025-12-09T08:00:01.999872", "MEAN_MOTION": 15.40664834, "ECCENTRICITY": 0.00015319, "INCLINATION": 43.001, "RA_OF_ASC_NODE": 67.558, "ARG_OF_PERICENTER": 272.046, "MEAN_ANOMALY": 270.3519, "EPHEMERIS_TYPE": 0, "CLASSIFICATION_TYPE": "U", "NORAD_CAT_ID": 66428, "ELEMENT_SET_NO": 999, "REV_AT_EPOCH": 573, "BSTAR": 0.00088640872, "MEAN_MOTION_DOT": 0.0003686, "MEAN_MOTION_DDOT": 0}, "tle": {"line1": "1 66428U 25259G   25343.33335648  .00036860  00000+0  88641-3 0  9993", "line2": "2 66428  43.0010  67.5580 0001531 272.0460 270.3519 15.40664834  5731"}}, "geometry": {"type": "Point", "coordinates": [45.131683405531014, -18.291324486640153]}}, {"type": "Feature", "properties": {"norad_id": 66429, "name": "STARLINK-35533", "group": "last-30-days", "lat": -10.140719145250271, "lon": 54.81008276848173, "alt_km": 444.6895583791247, "timestamp": "2025-12-09T14:52:24.940565+00:00", "meta": {"OBJECT_NAME": "STARLINK-35533", "OBJECT_ID": "2025-259H", "EPOCH": "2025-12-09T08:00:01.999872", "MEAN_MOTION": 15.40744314, "ECCENTRICITY": 0.00013646, "INCLINATION": 43.0008, "RA_OF_ASC_NODE": 67.5265, "ARG_OF_PERICENTER": 277.742, "MEAN_ANOMALY": 277.0656, "EPHEMERIS_TYPE": 0, "CLASSIFICATION_TYPE": "U", "NORAD_CAT_ID": 66429, "ELEMENT_SET_NO": 999, "REV_AT_EPOCH": 573, "BSTAR": -0.002539841, "MEAN_MOTION_DOT": -0.00105104, "MEAN_MOTION_DDOT": 0}, "tle": {"line1": "1 66429U 25259H   25343.33335648 -.00105104  00000+0 -25398-2 0  9993", "line2": "2 66429  43.0008  67.5265 0001364 277.7420 277.0656 15.40744314  5739"}}, "geometry": {"type": "Point", "coordinates": [54.81008276848173, -10.140719145250271]}}]}